AdminLevel	ID_GAUL	Label	Admin0_name	Admin1_name	Admin2_name	Lat	Long 	elevation (m)	10/6/15_FinalStatus	Cases_2014	Cases_2013	Cases_2012	Cases_2011	Cases_2010	Cases_2009	Cases_2008	Cases_2007	Cases_2006	Cases_2005	Cases_2004	Cases_2003	Cases_2002	Cases_2001	Cases_2000	Cases_1998	Cases_1995	Cases_1993	Cases_1986
0	1011446	Afghanistan	Afghanistan	not applicable	not applicable	35.09182165	68.27536012	3919	Sporadic or uncertain risk											1								
0	5	American Samoa	American Samoa	not applicable	not applicable	-14.3060204	-170.6961815	123	Frequent or continuous risk				131	195	373	602	78											
0	8	Angola	Angola	not applicable	not applicable	-11.25922482	17.85868836	1155	Sporadic or uncertain risk	1	313																	
0	9	Anguilla	Anguilla	not applicable	not applicable	18.220554	-63.068615	0	Sporadic or uncertain risk			9																
0	11	Antigua and Barbuda	Antigua and Barbuda	not applicable	not applicable	17.060816	-61.796428	66	Sporadic or uncertain risk			10				17												
1	429	Buenos aires	Argentina	Buenos aires	not applicable	-34.6036844	-58.3815591	29	Frequent or continuous risk		50	29	15	301	14													
1	430	Buenos aires df	Argentina	Buenos aires df	not applicable	-34.6036844	-58.3815591	29	Frequent or continuous risk		31				69		26											
1	431	Catamarca	Argentina	Catamarca	not applicable	-28.4715877	-65.7877209	551	Sporadic or uncertain risk						9057													
1	432	Chaco	Argentina	Chaco	not applicable	-27.4257175	-59.0243784	54	Frequent or continuous risk		113		17	93	10796													
1	434	Cordoba	Argentina	Cordoba	not applicable	-31.4200833	-64.1887761	412	Sporadic or uncertain risk		61				97													
1	435	Corrientes	Argentina	Corrientes	not applicable	-27.4692131	-58.8306349	65	Sporadic or uncertain risk						43		35											
1	436	Entre Rios	Argentina	Entre Rios	not applicable	-31.3913921	-58.017434	40	Sporadic or uncertain risk						13													
1	437	Formosa	Argentina	Formosa	not applicable	-26.1857768	-58.1755669	66	Frequent or continuous risk			14					187	6		105								
1	438	Jujuy	Argentina	Jujuy	not applicable	-24.1843397	-65.302177	1275	Sporadic or uncertain risk		26									66								
1	442	Misiones	Argentina	Misiones	not applicable	-27.4269255	-55.9467076	143	Frequent or continuous risk		53			872	39		186	106										
1	445	Salta	Argentina	Salta	not applicable	-24.7821269	-65.4231976	1188	Frequent or continuous risk		198	50	19		2516		126											
1	449	Santa Fe	Argentina	Santa Fe	not applicable	-31.6106578	-60.697294	20	Frequent or continuous risk				169	20	650													
1	450	Santiago del Estero	Argentina	Santiago del Estero	not applicable	-27.7833574	-64.264167	191	Sporadic or uncertain risk					70	413													
1	452	Tucuman	Argentina	Tucuman	not applicable	-26.8221127	-65.2192903	453	Sporadic or uncertain risk						1742													
0	14	Aruba	Aruba	not applicable	not applicable	12.52111	-69.968338	66	Frequent or continuous risk		1020	667	3027	1415	845													
2	154657	Cairns	Austrailia	Queensland	Cairns	-16.9185514	145.7780548	0	Frequent or continuous risk	70	77		11	19	935													
2	154659	Cassowary Coast	Austrailia	Queensland	Cassowary Coast	-17.9678541	145.9651126	40	Sporadic or uncertain risk				47	4														
2	154661	Charters Towers	Austrailia	Queensland	Charters Towers	-20.0769637	146.2601362	317	Sporadic or uncertain risk	18																		
2	5173	Douglas	Austrailia	Queensland	Douglas	-19.3222235	146.7580578	26	Sporadic or uncertain risk	17					2	22												
2	154696	Torres	Austrailia	Queensland	Torres	-10.1762821	142.2974988	39	Sporadic or uncertain risk										11	278								
2	154698	Townsville	Austrailia	Queensland	Townsville	-19.2589635	146.8169483	15	Frequent or continuous risk	15		3	11	28	12		45											
0	20	Bahamas	Bahamas	not applicable	not applicable	25.03428	-77.39628	9	Sporadic or uncertain risk				7000															
0	23	Bangladesh	Bangladesh	not applicable	not applicable	23.684994	90.356331	6	Frequent or continuous risk		500		473		405	27		1423										
0	24	Barbados	Barbados	not applicable	not applicable	13.193887	-59.543198	322	Frequent or continuous risk		2848	1445	745	2917	55													
0	28	Belize	Belize	not applicable	not applicable	17.189877	-88.49765	56	Frequent or continuous risk		2690	1948	469	2178	1457													
0	29	Benin	Benin	not applicable	not applicable	9.30769	2.315834	320	Sporadic or uncertain risk					2														
0	31	Bhutan	Bhutan	not applicable	not applicable	27.514162	90.433601	2539	Frequent or continuous risk				712	887	32		500	31		1393								
0	33	Bolivia	Bolivia	not applicable	not applicable	-17.23315341	-64.35351536	241	Frequent or continuous risk	1800	12202	5348	26019		59900													
0	37	Brazil	Brazil	not applicable	not applicable	-14.235004	-51.92528	259	Frequent or continuous risk	99638	1451432	565510	700000	936260														
0	39	British Virgin Islands	British Virgin Islands	not applicable	not applicable	18.420695	-64.639968	295	Frequent or continuous risk	13	126	214	939		65													
0	40	Brunei	Brunei	not applicable	not applicable	4.535277	114.727669	58	Frequent or continuous risk		349			77	37			65	18									
0	42	Burkina Faso	Burkina Faso	not applicable	not applicable	12.238333	-1.561593	298	Sporadic or uncertain risk		33						3	1										
0	43	Burundi	Burundi	not applicable	not applicable	-3.373056	29.918886	1714	Sporadic or uncertain risk	1																		
0	44	Cambodia	Cambodia	not applicable	not applicable	12.565679	104.990963	10	Frequent or continuous risk	1005	15193	36958	12392	1111														
0	45	Cameroon	Cameroon	not applicable	not applicable	4.98879288	12.20091341	629	Sporadic or uncertain risk					1														
0	47	Cape Verde	Cape Verde	not applicable	not applicable	15.120142	-23.6051722	290	Sporadic or uncertain risk						17000													
0	48	Cayman Islands	Cayman Islands	not applicable	not applicable	19.3133	-81.2546	6	Frequent or continuous risk		69	53					10											
0	49	Central African Republic	Central African Republic	not applicable	not applicable	6.611111	20.939444	620	Sporadic or uncertain risk																	1		
0	50	Chad	Chad	not applicable	not applicable	15.454166	18.732207	334	Sporadic or uncertain risk											2								
1	901	Fujian	China	Fujian	not applicable	25.90329464	118.1745385	796	Sporadic or uncertain risk								39			100								
1	903	Guangdong	China	Guangdong	not applicable	23.85762121	114.9144802	53	Frequent or continuous risk		108	97		21			25	492										
1	904	Guangxi	China	Guangxi	not applicable	23.82434438	110.4808663	153	Sporadic or uncertain risk														1					
1	906	Hainan	China	Hainan	not applicable	19.25166794	109.712022	176	Sporadic or uncertain risk																			114107
1	304	Jammu and Kashmir	China	Jammu and Kashmir	not applicable	33.99705742	76.2246089	4009	Sporadic or uncertain risk		600																	
1	925	Taiwan	China	Taiwan	not applicable	23.87876305	120.6968431	102	Frequent or continuous risk	172	214	161	457	1216														
1	929	Yunnan Sheng	China	Yunnan Sheng	not applicable	24.34711047	101.3916426	1594	Sporadic or uncertain risk		567					20												
1	930	Zhejiang	China	Zhejiang	not applicable	29.29485644	120.3285733	84	Sporadic or uncertain risk											83								
0	57	Colombia	Colombia	not applicable	not applicable	4.570868	-74.297333	2512	Frequent or continuous risk	53324	119856	729	17488	112802														
0	58	Comoros	Comoros	not applicable	not applicable	-11.6455	43.3333	127	Sporadic or uncertain risk					10														
0	59	Congo	Congo	not applicable	not applicable	-2.23935257	22.90124212	438	Sporadic or uncertain risk	1																		
0	68	Congo (Democratic republic of)	Congo (Democratic republic of)	not applicable	not applicable	-2.23935257	22.90124212	438	Sporadic or uncertain risk															1				
0	60	Cook islands	Cook islands	not applicable	not applicable	-21.236736	-159.777671	7	Frequent or continuous risk	50					170		60	170				1000						
0	61	Costa Rica	Costa Rica	not applicable	not applicable	9.96539974	-84.05005886	1225	Frequent or continuous risk	3648	49868	22243	13854	31773														
0	66	Cote d'Ivoire	Cote d'Ivoire	not applicable	not applicable	7.539989	-5.54708	240	Sporadic or uncertain risk							8	3	1										
1	989	Dubrovnik-neretva	Croatia	Dubrovnik-neretva	not applicable	42.6506606	18.0944238	35	Sporadic or uncertain risk																			
0	63	Cuba	Cuba	not applicable	not applicable	21.521757	-77.781167	72	Frequent or continuous risk	3500	1430				70		28		75									
0	70	Djibouti	Djibouti	not applicable	not applicable	11.825138	42.590275	1293	Sporadic or uncertain risk							2		4	1		123	5		6	28			
0	71	Dominica 	Dominica 	not applicable	not applicable	15.414999	-61.370976	292	Frequent or continuous risk	23	141	29	40	635														
0	72	Dominican Republic	Dominican Republic	not applicable	not applicable	18.735693	-70.162651	874	Frequent or continuous risk	3245	16658	9685	2339	11519														
0	894	Easter Island	Easter Island	not applicable	not applicable	-27.11299	-109.3495806	185	Frequent or continuous risk							25	27					132						
0	73	Ecuador	Ecuador	not applicable	not applicable	-1.34802803	-78.62285912	2940	Frequent or continuous risk	500	11662	14000		3985	42													
0	40765	Egypt	Egypt	not applicable	not applicable	26.820553	30.802498	289	Sporadic or uncertain risk					2														
0	75	El Salvador	El Salvador	not applicable	not applicable	13.794185	-88.89653	632	Frequent or continuous risk	15319	28877	41793	20836	22406														
0	76	Equatorial Guinea	Equatorial Guinea	not applicable	not applicable	1.650801	10.267895	943	Sporadic or uncertain risk							1												
0	77	Eritrea	Eritrea	not applicable	not applicable	15.51840636	38.81553712	2191	Sporadic or uncertain risk					2														
0	79	Ethiopia	Ethiopia	not applicable	not applicable	9.145	40.489673	1256	Sporadic or uncertain risk	704																		
0	83	Fiji	Fiji	not applicable	not applicable	-17.713371	178.065032	344	Frequent or continuous risk	25300	60	323	12		68													
2	16321	Alpes-maritimes	France	Provence-Alpes-Cote-d'Azur	Alpes-maritimes	43.9466791	7.179026	442	Sporadic or uncertain risk																			
2	16322	Bouches-du-Rhone	France	Provence-Alpes-Cote-d'Azur	Bouches-du-Rhone	43.5911679	5.3102505	228	Sporadic or uncertain risk																			
0	86	French Guiana	French Guiana	not applicable	not applicable	4.17498314	-53.08183669	151	Frequent or continuous risk	1180	16263	1372	667	4350														
0	87	French Polynesia	French Polynesia	not applicable	not applicable	-17.679742	-149.406843	816	Frequent or continuous risk		1326				2531		10	400					30000					
0	89	Gabon	Gabon	not applicable	not applicable	-0.803689	11.609444	532	Sporadic or uncertain risk					99														
0	1143	Galapagos	Galapagos	not applicable	not applicable	-0.6518973	-90.4056338	429	Sporadic or uncertain risk			76		32								215						
0	90	Gambia	Gambia	not applicable	not applicable	13.443182	-15.310139	11	Sporadic or uncertain risk													1						
0	94	Ghana	Ghana	not applicable	not applicable	7.946527	-1.023194	125	Sporadic or uncertain risk							464												
0	99	Grenada	Grenada	not applicable	not applicable	12.1165	-61.679	223	Frequent or continuous risk		155	75	87	125	23													
0	100	Guadeloupe	Guadeloupe	not applicable	not applicable	16.265	-61.551	5	Frequent or continuous risk	664	12706	1032	101	41100														
0	103	Guatemala	Guatemala	not applicable	not applicable	15.783471	-90.230759	374	Frequent or continuous risk	2668	11860	9547	2565	17045														
0	106	Guinea  	Guinea  	not applicable	not applicable	9.945587	-9.696645	415	Sporadic or uncertain risk									1										
0	105	Guinea-Bissau	Guinea-Bissau	not applicable	not applicable	11.803749	-15.180413	15	Sporadic or uncertain risk						1													
0	107	Guyana	Guyana	not applicable	not applicable	4.860416	-58.93018	311	Frequent or continuous risk		189			8100	665	300	11											
0	108	Haiti	Haiti	not applicable	not applicable	18.75286359	-72.30169449	704	Frequent or continuous risk			240																
0	111	Honduras	Honduras	not applicable	not applicable	15.63422866	-87.82393625	12	Frequent or continuous risk	6420	39271	15554	8297	66814														
0	33364	Hong Kong	Hong Kong	not applicable	not applicable	22.396428	114.109497	321	Sporadic or uncertain risk					1				1										
1	1484	Andaman and Nicobar	India	Andaman and Nicobar	not applicable	11.7400867	92.6586401	86	Sporadic or uncertain risk																			
1	1485	Andhra Pradesh	India	Andhra Pradesh	not applicable	15.00226278	79.21264375	197	Frequent or continuous risk		68	206	672	50				97										
1	70036	Arunachal Pradesh	India	Arunachal Pradesh	not applicable	28.50802329	94.96945202	2172	Sporadic or uncertain risk			4																
1	70037	Arunachal Pradesh	India	Arunachal Pradesh	not applicable	28.50802329	94.96945202	2172	Sporadic or uncertain risk			4																
1	70072	Arunachal Pradesh	India	Arunachal Pradesh	not applicable	28.50802329	94.96945202	2172	Sporadic or uncertain risk			4																
1	1487	Assam	India	Assam	not applicable	26.54510491	92.68488835	57	Frequent or continuous risk		350	1051		117		28												
1	70073	Bihar	India	Bihar	not applicable	25.70146091	86.17005299	45	Frequent or continuous risk			1000	21	524				12										
1	70075	Chhattisgarh	India	Chhattisgarh	not applicable	21.2786567	81.8661442	279	Sporadic or uncertain risk			53	43															
1	1489	Delhi	India	Delhi	not applicable	28.76186067	77.15742184	210	Frequent or continuous risk		5546	1980	1108	6190	1106													
1	1490	Goa	India	Goa	not applicable	15.2993265	74.123996	104	Frequent or continuous risk	30	109		21	237	49													
1	1491	Gujarat	India	Gujarat	not applicable	22.258652	71.1923805	293	Frequent or continuous risk		223	640	1327					475	33									
1	1492	Haryana 	India	Haryana 	not applicable	29.0587757	76.085601	217	Frequent or continuous risk		755	720	27			738		395										
1	1493	Himachal Pradesh	India	Himachal Pradesh	not applicable	31.29277788	77.1733901	1820	Sporadic or uncertain risk										2									
1	40422	Jammu and Kashmir	India	Jammu and Kashmir	not applicable	34.09719065	75.01611281	2637	Sporadic or uncertain risk		600																	
1	40423	Jammu and Kashmir	India	Jammu and Kashmir	not applicable	34.09719065	75.01611281	2637	Sporadic or uncertain risk		600																	
1	40424	Jammu and Kashmir	India	Jammu and Kashmir	not applicable	34.09719065	75.01611281	2637	Sporadic or uncertain risk		600																	
1	40425	Jammu and Kashmir	India	Jammu and Kashmir	not applicable	34.09719065	75.01611281	2637	Sporadic or uncertain risk		600																	
1	40426	Jammu and Kashmir	India	Jammu and Kashmir	not applicable	34.09719065	75.01611281	2637	Sporadic or uncertain risk		600																	
1	40427	Jammu and Kashmir	India	Jammu and Kashmir	not applicable	34.09719065	75.01611281	2637	Sporadic or uncertain risk		600																	
1	40428	Jammu and Kashmir	India	Jammu and Kashmir	not applicable	34.09719065	75.01611281	2637	Sporadic or uncertain risk		600																	
1	40429	Jammu and Kashmir	India	Jammu and Kashmir	not applicable	34.09719065	75.01611281	2637	Sporadic or uncertain risk		600																	
1	40430	Jammu and Kashmir	India	Jammu and Kashmir	not applicable	34.09719065	75.01611281	2637	Sporadic or uncertain risk		600																	
1	40431	Jammu and Kashmir	India	Jammu and Kashmir	not applicable	34.09719065	75.01611281	2637	Sporadic or uncertain risk		600																	
1	70078	Jharkhand	India	Jharkhand	not applicable	23.6101808	85.2799354	413	Frequent or continuous risk		25	132	12															
1	1494	Karnataka	India	Karnataka	not applicable	15.3172775	75.7138884	651	Frequent or continuous risk	413	6023	3640	330					92										
1	1495	Kerala	India	Kerala	not applicable	9.6505209	76.53475517	32	Frequent or continuous risk	94	7000	3760	1051	119														
1	70079	Madhya Pradesh	India	Madhya Pradesh	not applicable	23.40766286	77.34952115	490	Frequent or continuous risk		91	62	50	18	300													
1	1498	Maharashtra	India	Maharashtra	not applicable	19.64804662	75.69191574	620	Frequent or continuous risk	179	741	886	434	88														
1	1500	Manipur	India	Manipur	not applicable	24.6637173	93.9062688	777	Frequent or continuous risk				202		200	12	91											
1	1501	Meghalaya	India	Meghalaya	not applicable	25.59590625	91.69580584	1582	Sporadic or uncertain risk																			
1	1502	Mizoram	India	Mizoram	not applicable	23.60822823	92.75080632	661	Sporadic or uncertain risk																			
1	1503	Nagaland	India	Nagaland	not applicable	26.05978285	94.5624426	1346	Sporadic or uncertain risk																	1		
1	1504	Orissa	India	Orissa	not applicable	20.32451142	85.4500861	44	Sporadic or uncertain risk			2	1811	57														
1	1505	Punjab	India	Punjab	not applicable	30.60021878	75.13247767	217	Frequent or continuous risk		1549	347	3475	246		110												
1	1506	Rajasthan	India	Rajasthan	not applicable	27.05316021	73.71256151	313	Frequent or continuous risk		2300		234	754	551	260		22										
1	1507	Sikkim	India	Sikkim	not applicable	27.24032201	88.30347757	716	Sporadic or uncertain risk				2															
1	1508	Tamil Nadu	India	Tamil Nadu	not applicable	11.46110283	78.75577115	163	Frequent or continuous risk		4634	217	1654	986		282												
1	1509	Tripura	India	Tripura	not applicable	23.9408482	91.9881527	65	Sporadic or uncertain risk																			
1	70081	Uttar Pradesh	India	Uttar Pradesh	not applicable	26.80749321	80.57262404	128	Frequent or continuous risk		605	151	33	25				570										
1	70082	Uttarakhand	India	Uttarakhand	not applicable	30.066753	79.0192997	2189	Frequent or continuous risk		352	58	68	327	1285													
1	1511	West Benegal	India	West Benegal	not applicable	22.9867569	87.8549755	27	Frequent or continuous risk			6067	415		73	20		820										
0	1013696	Indonesia	Indonesia	not applicable	not applicable	-2.15500926	113.2316895	38	Frequent or continuous risk	527	49000	174	800	1781														
1	1553	Kordestan	Iran	Kordestan	not applicable	35.9553579	47.1362125	1927	No evidence of risk									1										
1	1559	Sistan-o baluchestan	Iran	Sistan-o baluchestan	not applicable	27.5299906	60.5820676	1024	Sporadic or uncertain risk									6										
0	123	Jamaica	Jamaica	not applicable	not applicable	18.109581	-77.297508	206	Frequent or continuous risk		861	4670	408	2827	70													
1	1690	Tokyo	Japan	Tokyo	not applicable	35.6894875	139.6917064	37	Sporadic or uncertain risk																			
0	133	Kenya	Kenya	not applicable	not applicable	-0.023559	37.906193	823	Frequent or continuous risk		83		5000															
0	135	Kiribati	Kiribati	not applicable	not applicable	1.8708833	-157.3630262	4	Sporadic or uncertain risk							900												
0	139	Lao PDR	Lao PDR	not applicable	not applicable	19.85627	102.495496	776	Frequent or continuous risk		48000	432	49	21958														
0	144	Liberia	Liberia	not applicable	not applicable	6.428055	-9.429499	239	Sporadic or uncertain risk	1																		
0	149	Macau	Macau	not applicable	not applicable	22.198745	113.543873	40	Sporadic or uncertain risk								1			2	2		1000					
0	150	Madagascar	Madagascar	not applicable	not applicable	-18.766947	46.869107	1344	Sporadic or uncertain risk									34										
1	1886	Madeira	Madeira	Madeira	not applicable	32.7607074	-16.9594723	1104	Sporadic or uncertain risk		23	2012																
0	152	Malawi	Malawi	not applicable	not applicable	-13.80973525	34.2246207	695	Sporadic or uncertain risk	1																		
0	153	Malaysia	Malaysia	not applicable	not applicable	3.41026147	101.7120941	661	Frequent or continuous risk	51987	41226	17066	18371	44641														
0	154	Maldives	Maldives	not applicable	not applicable	1.9772469	73.5361118	2	Frequent or continuous risk		253	163	2421	473		581												
0	155	Mali	Mali	not applicable	not applicable	12.82248468	-7.95124413	379	Sporadic or uncertain risk							330												
0	157	Marshall Islands	Marshall Islands	not applicable	not applicable	7.42456841	168.7708743	0	Sporadic or uncertain risk			101	493															
0	158	Martinique	Martinique	not applicable	not applicable	14.641528	-61.024174	106	Frequent or continuous risk	1680	7040	1269	275	37100														
0	160	Mauritius	Mauritius	not applicable	not applicable	-20.16803628	57.51369985	50	Sporadic or uncertain risk						252													
0	161	Mayotte	Mayotte	not applicable	not applicable	-12.74982501	45.14976451	142	Sporadic or uncertain risk			43																
1	1006345	Aguascalientes	Mexico	Aguascalientes	not applicable	21.8852562	-102.2915677	1877	Sporadic or uncertain risk																			
1	1006346	Baja California	Mexico	Baja California	not applicable	30.8406338	-115.2837585	1071	Sporadic or uncertain risk										1		8	3		1				
1	1006364	Baja California Sur	Mexico	Baja California Sur	not applicable	24.52182216	-110.8013366	45	Frequent or continuous risk	203	2024	32		670		209												
1	1006347	Campeche	Mexico	Campeche	not applicable	19.8301251	-90.5349087	7	Frequent or continuous risk	186	1967	1833			132	46												
1	1006348	Chiapas	Mexico	Chiapas	not applicable	16.7569318	-93.1292353	540	Frequent or continuous risk		2161	3400				1153	2225	537										
1	1006349	Chihuahua	Mexico	Chihuahua	not applicable	28.6329957	-106.0691004	1429	Sporadic or uncertain risk							1												
1	1006350	Coahuila de Zaragoza	Mexico	Coahuila de Zaragoza	not applicable	27.058676	-101.7068294	686	Frequent or continuous risk		142					29	813	228	120									
1	1006365	Colima	Mexico	Colima	not applicable	19.5123568	-103.6169681	3829	Frequent or continuous risk		2300			670	1014	2139	777											
1	1006351	Distrito Federal	Mexico	Distrito Federal	not applicable	19.2464696	-99.1013498	2269	No evidence of risk																			
1	1006366	Durango	Mexico	Durango	not applicable	24.5592665	-104.6587821	1936	Sporadic or uncertain risk							32												
1	1006352	Guanajuato	Mexico	Guanajuato	not applicable	21.0190145	-101.2573586	2022	Frequent or continuous risk						25	14	636											
1	1006353	Guerrero	Mexico	Guerrero	not applicable	17.4391926	-99.5450974	2152	Frequent or continuous risk		740	4420		1198	548	3311												
1	1006354	Hidalgo	Mexico	Hidalgo	not applicable	20.0910963	-98.7623874	2375	Frequent or continuous risk		210	44		100		579	44											
1	1006367	Jalisco	Mexico	Jalisco	not applicable	20.6595382	-103.3494376	1557	Frequent or continuous risk	443	5400	489	168	623														
1	1006355	Mexico	Mexico	Mexico	not applicable	15.976462	-93.213266	780	Frequent or continuous risk		43	67				58	44			29								
1	1006356	Michoacan de Ocampo	Mexico	Michoacan de Ocampo	not applicable	19.5665192	-101.7068294	2047	Frequent or continuous risk		432	1125			624	2566	2297											
1	1006357	Morelos	Mexico	Morelos	not applicable	18.6813049	-99.1013498	949	Frequent or continuous risk	60	3180	2057			199	5943												
1	1006368	Nayarit	Mexico	Nayarit	not applicable	21.7513844	-104.8454619	351	Frequent or continuous risk		1346	13		76	5631	183												
1	1006358	Nuevo Leon	Mexico	Nuevo Leon	not applicable	25.592172	-99.9961947	329	Frequent or continuous risk	1358	2835	1550		800		803												
1	1006359	Oaxaca	Mexico	Oaxaca	not applicable	17.0542297	-96.7132304	1542	Frequent or continuous risk	368	1654	2199	146	1688														
1	1006360	Puebla	Mexico	Puebla	not applicable	19.0412967	-98.2061996	2147	Frequent or continuous risk	103	80	192				601	307											
1	1006361	Queretaro	Mexico	Queretaro	not applicable	20.5888184	-100.3898876	1822	Frequent or continuous risk			64	165		85	3	8	110										
1	1006369	Quintana Roo	Mexico	Quintana Roo	not applicable	19.1817393	-88.4791376	19	Frequent or continuous risk	201	1853	1125				421	3545											
1	1006370	San Luis Potosi	Mexico	San Luis Potosi	not applicable	22.1564699	-100.9855409	1874	Frequent or continuous risk	43	500	1166				265	243											
1	1006371	Sinaloa	Mexico	Sinaloa	not applicable	25.1721091	-107.4795173	347	Frequent or continuous risk	140	60	87			255			20										
1	1006372	Sonora	Mexico	Sonora	not applicable	29.2972247	-110.3308814	497	Frequent or continuous risk	119	868	400		3157		23												
1	1006373	Tabasco	Mexico	Tabasco	not applicable	17.8409173	-92.6189273	27	Frequent or continuous risk		5112	3550				870	1695	174										
1	1006374	Tamaulipas	Mexico	Tamaulipas	not applicable	24.26694	-98.8362755	223	Frequent or continuous risk	164	4691	710		194	35													
1	1006362	Tlaxcala	Mexico	Tlaxcala	not applicable	19.318154	-98.2374954	2238	No evidence of risk																			
1	1006375	Veracruz de Ignacio de la Llave	Mexico	Veracruz de Ignacio de la Llave	not applicable	19.2601605	-96.5783387	291	Frequent or continuous risk		5005	10972	580	500	2286													
1	1006376	Yucatan	Mexico	Yucatan	not applicable	20.7098786	-89.0943377	24	Frequent or continuous risk	358	6069	8429	2106	642														
1	1006363	Zacatecas	Mexico	Zacatecas	not applicable	22.7708555	-102.5832426	2488	Sporadic or uncertain risk								156											
0	163	Micronesia (Federated states of)	Micronesia (Federated states of)	not applicable	not applicable	6.9251275	158.1626129	87	Frequent or continuous risk		875	500	286				6			658								
0	168	Montserrat	Montserrat	not applicable	not applicable	16.742498	-62.187366	323	Sporadic or uncertain risk		6																	
0	170	Mozambique	Mozambique	not applicable	not applicable	-19.3608797	35.12867366	56	Sporadic or uncertain risk	22																		
0	1011440	Myanmar	Myanmar	not applicable	not applicable	20.8251336	95.86566763	228	Frequent or continuous risk	654	6448	6033		500	329													
0	172	Namibia	Namibia	not applicable	not applicable	-22.51180118	16.71062484	1927	Sporadic or uncertain risk															1				
0	173	Nauru	Nauru	not applicable	not applicable	-0.522778	166.931503	34	Sporadic or uncertain risk	3											20							
0	175	Nepal	Nepal	not applicable	not applicable	27.77452784	85.11277753	1302	Frequent or continuous risk		215		735	888			239	11										
0	176	Netherlands Antilles	Netherlands Antilles	not applicable	not applicable	12.2018902	-68.2623822	46	Frequent or continuous risk		436	121	939	852			165											
0	178	New Caledonia	New Caledonia	not applicable	not applicable	-22.23248363	166.4530029	33	Frequent or continuous risk		10889	161			1400	1000	13											
0	180	Nicaragua	Nicaragua	not applicable	not applicable	12.865416	-85.207229	190	Frequent or continuous risk	8776	77179	30499	11888	6261														
0	181	Niger 	Niger 	not applicable	not applicable	13.63039406	2.06115819	251	Sporadic or uncertain risk							1												
0	182	Nigeria	Nigeria	not applicable	not applicable	9.081999	7.48875356	501	Sporadic or uncertain risk			1																
0	183	Niue	Niue	not applicable	not applicable	-19.054445	-169.867233	57	Sporadic or uncertain risk			100																
0	185	Northern Mariana Islands	Northern Mariana Islands	not applicable	not applicable	13.50106601	144.8389391	0	Sporadic or uncertain risk																1			
0	187	Oman	Oman	not applicable	not applicable	23.5923979	58.28531555	13	Sporadic or uncertain risk										28									
1	2272	Balochistan	Pakistan	Balochistan	not applicable	28.4907332	65.0957792	675	Sporadic or uncertain risk																	1800		
1	2273	Fata	Pakistan	Fata	not applicable	32.667476	69.8597406	2062	Sporadic or uncertain risk					18														
1	2274	Islamabad	Pakistan	Islamabad	not applicable	32.3770799	73.986676	222	Frequent or continuous risk				2632	230		11	55	825										
1	40408	Jammu and Kashmir	Pakistan	Jammu and Kashmir	not applicable	34.02352709	75.96606418	4959	Sporadic or uncertain risk		600																	
1	40409	Jammu and Kashmir	Pakistan	Jammu and Kashmir	not applicable	34.02352709	75.96606418	4959	Sporadic or uncertain risk		600																	
1	2275	Nwfp	Pakistan	Nwfp	not applicable	34.9526205	72.331113	1431	Frequent or continuous risk		5159		848	158														
1	2276	Punjab	Pakistan	Punjab	not applicable	31.1704063	72.7097161	168	Frequent or continuous risk		2589	140	21275	5008		1219												
1	2277	Sindh	Pakistan	Sindh	not applicable	25.8943018	68.5247149	5	Frequent or continuous risk	179	5500	715	823	5064														
0	189	Palau	Palau	not applicable	not applicable	7.51498	134.58252	73	Frequent or continuous risk							31	14	15	9	76	12	73	485					
0	191	Panama	Panama	not applicable	not applicable	9.06996635	-79.21108208	3	Frequent or continuous risk	3707	3235	1329	3882	1243														
0	1011441	Papua New Guinea	Papua New Guinea	not applicable	not applicable	-9.42708336	147.2075031	7	Frequent or continuous risk			95																
0	194	Paraguay	Paraguay	not applicable	not applicable	-23.442503	-58.443832	93	Frequent or continuous risk	5590	140787	36716	46689	13678														
1	1012390	Amazonas	Peru	Amazonas	not applicable	-5.115146	-78.1108279	667	Frequent or continuous risk		266	623	494	526	321													
1	1012304	Ancash	Peru	Ancash	not applicable	-9.3250497	-77.56194193	3014	Frequent or continuous risk		463	1032			234	100												
1	1012379	Apurimac	Peru	Apurimac	not applicable	-14.0504533	-73.087749	3702	Sporadic or uncertain risk				1															
1	1012436	AREQUIPA	Peru	AREQUIPA	not applicable	-16.4090474	-71.537451	2321	No evidence of risk																			
1	1012332	AYACUCHO	Peru	AYACUCHO	not applicable	-13.1638737	-74.2235641	2718	No evidence of risk																			
1	1012429	Cajamarca	Peru	Cajamarca	not applicable	-7.1617465	-78.5127855	2722	Frequent or continuous risk		108	3238	842	1030	629													
1	1012410	Cusco	Peru	Cusco	not applicable	-13.9371775	-71.5723953	4186	Sporadic or uncertain risk				58															
1	1012306	HUANCAVELICA	Peru	HUANCAVELICA	not applicable	-12.9280456	-75.1545381	4699	No evidence of risk																			
1	1012344	Huanuco	Peru	Huanuco	not applicable	-12.0732894	-75.2073294	3250	Frequent or continuous risk		86	277	140	338	373													
1	1012417	ICA	Peru	ICA	not applicable	-13.9379378	-75.8007093	443	No evidence of risk																			
1	1012307	Junin	Peru	Junin	not applicable	-11.335798	-75.3412179	1714	Frequent or continuous risk		817	566	116				387	226										
1	1012399	La Libertad	Peru	La Libertad	not applicable	-8.1435933	-78.4751945	2881	Frequent or continuous risk		22	110	19			270	1522											
1	1012451	Lambayeque	Peru	Lambayeque	not applicable	-6.4776528	-79.9192702	40	Frequent or continuous risk		30	720	22	890	1027													
1	1012444	Lima	Peru	Lima	not applicable	-12.046374	-77.0427934	138	Frequent or continuous risk		103	343		301		193	39											
1	1012328	Loreto	Peru	Loreto	not applicable	-4.2324729	-74.2179326	112	Frequent or continuous risk		4502	3900	22714	4153	5559													
1	1012440	Madre de Dios	Peru	Madre de Dios	not applicable	-11.7668705	-70.8119953	422	Frequent or continuous risk		2236	1551	1978	4405	1604													
1	1012356	MOQUEGUA	Peru	MOQUEGUA	not applicable	-16.895405	-70.8574902	3080	No evidence of risk																			
1	1012373	Pasco	Peru	Pasco	not applicable	-10.4475753	-75.1545381	1182	Frequent or continuous risk		70	91	92			34												
1	1012396	Piura	Peru	Piura	not applicable	-5.1782884	-80.6548882	39	Frequent or continuous risk		2104	1284	280	9893	5760													
1	1012362	Puno	Peru	Puno	not applicable	-15.8402218	-70.0218805	3825	Sporadic or uncertain risk		5	3	3															
1	1012426	San Martin	Peru	San Martin	not applicable	-7.2444881	-76.8259652	338	Frequent or continuous risk		1517	2061	1753		1106	1175												
1	1012404	TACNA	Peru	TACNA	not applicable	-18.0065679	-70.2462741	597	No evidence of risk																			
1	1012327	Tumbes	Peru	Tumbes	not applicable	-3.5564921	-80.4270885	24	Frequent or continuous risk		268	748	258	1598	1127													
1	1012374	Ucayali	Peru	Ucayali	not applicable	-9.8251183	-73.087749	336	Frequent or continuous risk		1233	6714	1032		1405	1313												
0	196	Philippines	Philippines	not applicable	not applicable	12.879721	121.774017	0	Frequent or continuous risk	448	117658	132046	97158	119789														
0	200	Puerto Rico	Puerto Rico	not applicable	not applicable	18.220833	-66.590149	454	Frequent or continuous risk	2132	18164	12877	5654	21298														
0	206	Reunion	Reunion	not applicable	not applicable	-21.115141	55.536384	1667	Sporadic or uncertain risk			20																
0	205	Rwanda	Rwanda	not applicable	not applicable	-1.940278	29.873888	1583	Sporadic or uncertain risk																		1	
0	212	Samoa	Samoa	not applicable	not applicable	-13.759029	-172.104629	0	Sporadic or uncertain risk			10				500												
0	214	Sao Tome and Principe	Sao Tome and Principe	not applicable	not applicable	0.18636	6.613081	141	Sporadic or uncertain risk	1																		
1	2627	Jizan	Saudi Arabia	Jizan	not applicable	17.4751353	42.7076107	212	Sporadic or uncertain risk					156														
1	2628	Madinah	Saudi Arabia	Madinah	not applicable	24.5246542	39.5691841	589	No evidence of risk																			
1	2629	Makkah	Saudi Arabia	Makkah	not applicable	21.5235584	41.9196471	1131	Frequent or continuous risk		4404	981	2365	2231	1596													
0	217	Senegal	Senegal	not applicable	not applicable	14.81626508	-16.89132684	48	Sporadic or uncertain risk						55													
0	220	Seychelles	Seychelles	not applicable	not applicable	-4.679574	55.491977	0	Sporadic or uncertain risk											1								
0	221	Sierra Leone	Sierra Leone	not applicable	not applicable	8.43882085	-12.94443978	27	Sporadic or uncertain risk	1																		
0	1011444	Solomon Islands	Solomon Islands	not applicable	not applicable	-9.64571	160.156194	519	Sporadic or uncertain risk		6000	3651																
0	226	Somalia	Somalia	not applicable	not applicable	2.21421913	45.29873709	112	Sporadic or uncertain risk				122															
1	2441	Kyongsangnam-do (South Gyeongsang)	South Korea	Kyongsangnam-do (South Gyeongsang)	not applicable	35.4606	128.2132	472	No evidence of risk																			
0	1013968	South Sudan	South Sudan	not applicable	not applicable	5.15077192	31.63656864	473	Sporadic or uncertain risk	1																		
0	231	Sri Lanka	Sri Lanka	not applicable	not applicable	6.95793095	80.15656262	107	Frequent or continuous risk	12322	20216	50000	22926	22159														
0	208	St Kitts and Nevis	St Kitts and Nevis	not applicable	not applicable	17.357822	-62.782998	729	Frequent or continuous risk		100		47	19		49												
0	209	St Lucia	St Lucia	not applicable	not applicable	13.909444	-60.978893	304	Frequent or continuous risk		234	33	585	74	18													
0	211	St Vincent and the Grenadines	St Vincent and the Grenadines	not applicable	not applicable	13.2528179	-61.1971629	622	Frequent or continuous risk		127	193	47	133	10													
0	40764	Sudan	Sudan	not applicable	not applicable	14.4853363	30.217636	492	Frequent or continuous risk	738				81		41			302	10								
0	233	Suriname	Suriname	not applicable	not applicable	3.919305	-56.027783	167	Frequent or continuous risk		21	300	409	113	103													
0	257	Tanzania	Tanzania	not applicable	not applicable	-6.369028	34.888822	1170	Frequent or continuous risk					2														
0	240	Thailand	Thailand	not applicable	not applicable	14.38529336	100.5530879	8	Frequent or continuous risk	6420	139684	55485	48760	57948														
0	242	Timor-Leste	Timor-Leste	not applicable	not applicable	-8.874217	125.727539	714	Frequent or continuous risk	160		206	352			20			40									
0	243	Togo	Togo	not applicable	not applicable	8.619543	0.824782	481	Sporadic or uncertain risk					1														
0	244	Tokelau	Tokelau	not applicable	not applicable	-9.2002	-171.8484	0	Sporadic or uncertain risk													3						
0	245	Tonga	Tonga	not applicable	not applicable	-21.178986	-175.198242	0	Frequent or continuous risk	10000						200			100						98			
0	246	Trinidad and Tobago	Trinidad and Tobago	not applicable	not applicable	10.691803	-61.222503	220	Frequent or continuous risk		3289	2473	1243	2497	24													
0	251	Turks and Caicos	Turks and Caicos	not applicable	not applicable	21.77566725	-71.797928	4	Sporadic or uncertain risk			16	24															
0	252	Tuvalu	Tuvalu	not applicable	not applicable	-7.4784206	178.679924	11	Sporadic or uncertain risk	176																		
0	253	Uganda	Uganda	not applicable	not applicable	1.373333	32.290275	1075	Sporadic or uncertain risk																		1	
2	29003	Broward	United States of America	Florida	Broward	26.190096	-80.365865	4	Sporadic or uncertain risk					1														
2	31230	Cameron	United States of America	Texas	Cameron	30.8532454	-96.9769304	120	Sporadic or uncertain risk		21																	
1	3225	Hawaii	United States of America	Hawaii	not applicable	21.31071584	-157.8514586	37	Sporadic or uncertain risk				4										118					
2	31307	Hidalgo	United States of America	Texas	Hidalgo	26.1003547	-98.2630684	34	Sporadic or uncertain risk		2																	
2	29025	Hillsborough	United States of America	Florida	Hillsborough	27.9903597	-82.3017728	19	Sporadic or uncertain risk				1															
2	29039	Martin	United States of America	Florida	Martin	27.0804935	-80.4103957	9	Sporadic or uncertain risk		17		1															
2	29040	Miami Dade	United States of America	Florida	Miami Dade	25.5516034	-80.6326916	2	Sporadic or uncertain risk		2	1	3	1														
2	29041	Monroe	United States of America	Florida	Monroe	24.5557001	-81.7825985	1	Sporadic or uncertain risk					56	20													
2	29046	Osceola	United States of America	Florida	Osceola	28.1019838	-81.0754657	23	Sporadic or uncertain risk			1																
2	29047	Palm Beach	United States of America	Florida	Palm Beach	26.7056206	-80.0364297	2	Sporadic or uncertain risk		1		2															
2	30498	Santa Fe	United States of America	New Mexico	Santa Fe	35.6869752	-105.937799	2132	No evidence of risk																			
2	29056	St Lucie	United States of America	Florida	St Lucie	27.2730492	-80.3582261	7	Sporadic or uncertain risk		4																	
2	30556	Suffolk	United States of America	New York	Suffolk	40.9848784	-72.6151169	2	Sporadic or uncertain risk																			
2	31444	Willacy	United States of America	Texas	Willacy	26.4948223	-97.6982272	8	Sporadic or uncertain risk		1																	
0	260	Uruguay	Uruguay	not applicable	not applicable	-32.522779	-55.765835	89	Sporadic or uncertain risk		3						1											
0	258	US Virgin Islands	US Virgin Islands	not applicable	not applicable	18.335765	-64.896335	61	Frequent or continuous risk		141						73											
0	262	Vanuatu	Vanuatu	not applicable	not applicable	-15.20714843	167.1239529	166	Sporadic or uncertain risk	313																		
0	263	Venezuela	Venezuela	not applicable	not applicable	10.24933359	-66.87537453	526	Frequent or continuous risk	2953	52587	40635		114855	35546													
0	1011447	Vietnam	Vietnam	not applicable	not applicable	12.28264304	108.1233904	651	Frequent or continuous risk		25300	51000	49011	80000	17140													
0	266	Wallis and Futuna	Wallis and Futuna	not applicable	not applicable	-14.2938	-178.1165	313	Sporadic or uncertain risk												2071	829						
0	269	Yemen	Yemen	not applicable	not applicable	15.34093753	44.73709113	1894	Frequent or continuous risk			1200		2200	1000	525			345									
0	270	Zambia	Zambia	not applicable	not applicable	-14.96692391	28.24483981	1163	Sporadic or uncertain risk																		1	
0	271	Zimbabwe	Zimbabwe	not applicable	not applicable	-17.80628074	31.04450544	1495	Sporadic or uncertain risk																		1	
